[
	{
		"type": "Feature",
		"properties": {
			"@id": "node/89274703",
			"addr:city": "Berlin",
			"addr:country": "DE",
			"addr:housenumber": 1,
			"addr:postcode": 10178,
			"addr:street": "Panoramastraße",
			"addr:suburb": "Mitte",
			"amenity": "restaurant",
			"check_date": "2022-10-28",
			"cuisine": "german",
			"email": "restaurant@der-alte-fritz.de",
			"indoor_seating": "yes",
			"internet_access": "wlan",
			"internet_access:fee": "no",
			"level": 0,
			"name": "Der Alte Fritz",
			"opening_hours": "PH,Mo-Su 12:00-22:00",
			"outdoor_seating": "yes",
			"payment:mastercard": "yes",
			"payment:visa": "yes",
			"phone": "+49 30 96200600",
			"takeaway": "yes",
			"website": "https://der-alte-fritz.eatbu.com/"
		},
		"geometry": {
			"type": "Point",
			"coordinates": [13.4092065, 52.5214304]
		},
		"id": "node/89274703"
	},
	{
		"type": "Feature",
		"properties": {
			"@id": "node/89274833",
			"addr:city": "Berlin",
			"addr:country": "DE",
			"addr:housenumber": 1,
			"addr:postcode": 10178,
			"addr:street": "Rathausstraße",
			"addr:suburb": "Mitte",
			"amenity": "restaurant",
			"indoor_seating": "yes",
			"internet_access": "yes",
			"name": "Carambar",
			"opening_hours": "Mo-Su,PH 12:00-18:00+",
			"outdoor_seating": "yes",
			"smoking": "separated",
			"website": "https://carambar.de",
			"wheelchair": "yes"
		},
		"geometry": {
			"type": "Point",
			"coordinates": [13.4122196, 52.5203514]
		},
		"id": "node/89274833"
	},
	{
		"type": "Feature",
		"properties": {
			"@id": "node/89274854",
			"amenity": "restaurant",
			"cuisine": "italian",
			"name": "Da Vincenzo",
			"wheelchair": "limited"
		},
		"geometry": {
			"type": "Point",
			"coordinates": [13.4118079, 52.5202106]
		},
		"id": "node/89274854"
	},
	{
		"type": "Feature",
		"properties": {
			"@id": "node/258497093",
			"addr:city": "Berlin",
			"addr:country": "DE",
			"addr:housenumber": 19,
			"addr:postcode": 10178,
			"addr:street": "Rosenstraße",
			"addr:suburb": "Mitte",
			"amenity": "restaurant",
			"contact:phone": "+49 30 84711058",
			"cuisine": "asian",
			"name": "Eden",
			"opening_hours": "Mo-Fr 12:00-23:00; Sa 13:00-23:00; Su 17:00-23:00",
			"outdoor_seating": "yes",
			"toilets:wheelchair": "yes",
			"wheelchair": "yes"
		},
		"geometry": {
			"type": "Point",
			"coordinates": [13.4047999, 52.5219316]
		},
		"id": "node/258497093"
	},
	{
		"type": "Feature",
		"properties": {
			"@id": "node/330160536",
			"addr:city": "Berlin",
			"addr:postcode": 10178,
			"addr:street": "Dircksenstraße",
			"amenity": "restaurant",
			"cuisine": "spanish",
			"diet:vegetarian": "yes",
			"name": "Atame",
			"opening_hours": "Mo-Fr 13:00-24:00; Sa 16:00-24:00; Su off",
			"phone": "+49 30 98390591",
			"website": "http://atame-tapasbar.de"
		},
		"geometry": {
			"type": "Point",
			"coordinates": [13.406796, 52.523574]
		},
		"id": "node/330160536"
	},
	{
		"type": "Feature",
		"properties": {
			"@id": "node/437612731",
			"addr:city": "Berlin",
			"addr:country": "DE",
			"addr:housenumber": 7,
			"addr:postcode": 10178,
			"addr:street": "Karl-Liebknecht-Straße",
			"addr:suburb": "Mitte",
			"amenity": "restaurant",
			"brand": "BLOCK HOUSE",
			"brand:wikidata": "Q320430",
			"brand:wikipedia": "de:Block House",
			"contact:phone": "+49 30 2423300",
			"contact:website": "http://www.block-house.de",
			"cuisine": "steak_house",
			"name": "BLOCK HOUSE",
			"opening_hours": "Mo-Sa 11:30-24:00; Su 11:30-23:00",
			"toilets:wheelchair": "no",
			"wheelchair": "yes"
		},
		"geometry": {
			"type": "Point",
			"coordinates": [13.4051631, 52.5205315]
		},
		"id": "node/437612731"
	},
	{
		"type": "Feature",
		"properties": {
			"@id": "node/437613252",
			"addr:city": "Berlin",
			"addr:country": "DE",
			"addr:housenumber": 9,
			"addr:postcode": 10178,
			"addr:street": "Karl-Liebknecht-Straße",
			"addr:suburb": "Mitte",
			"amenity": "restaurant",
			"contact:website": "http://www.berliner-kartoffelhaus.de/",
			"cuisine": "german",
			"name": "Kartoffelhaus",
			"opening_hours": "11:30-23:00",
			"outdoor_seating": "yes",
			"wheelchair": "no"
		},
		"geometry": {
			"type": "Point",
			"coordinates": [13.4062159, 52.5211493]
		},
		"id": "node/437613252"
	},
	{
		"type": "Feature",
		"properties": {
			"@id": "node/437614448",
			"addr:city": "Berlin",
			"addr:country": "DE",
			"addr:housenumber": 9,
			"addr:postcode": 10178,
			"addr:street": "Karl-Liebknecht-Straße",
			"addr:suburb": "Mitte",
			"amenity": "restaurant",
			"cuisine": "regional",
			"name": "Schlögl's Altberliner Gaststube",
			"outdoor_seating": "yes",
			"toilets:wheelchair": "yes",
			"wheelchair": "yes"
		},
		"geometry": {
			"type": "Point",
			"coordinates": [13.4059828, 52.5213454]
		},
		"id": "node/437614448"
	},
	{
		"type": "Feature",
		"properties": {
			"@id": "node/534694571",
			"addr:city": "Berlin",
			"addr:country": "DE",
			"addr:housenumber": 2,
			"addr:postcode": 10178,
			"addr:street": "Anna-Louisa-Karsch-Straße",
			"addr:suburb": "Mitte",
			"amenity": "restaurant",
			"check_date:opening_hours": "2022-11-03",
			"cuisine": "italian",
			"indoor_seating": "yes",
			"name": "Ciccia",
			"opening_hours:signed": "no",
			"outdoor_seating": "yes"
		},
		"geometry": {
			"type": "Point",
			"coordinates": [13.4016458, 52.5202562]
		},
		"id": "node/534694571"
	},
	{
		"type": "Feature",
		"properties": {
			"@id": "node/567837367",
			"addr:city": "Berlin",
			"addr:country": "DE",
			"addr:housenumber": 46,
			"addr:postcode": 10119,
			"addr:street": "Alte Schönhauser Straße",
			"addr:suburb": "Mitte",
			"amenity": "restaurant",
			"check_date": "2022-09-10",
			"contact:phone": "+493099296924",
			"contact:website": "http://www.monsieurvuong.de/",
			"cuisine": "vietnamese",
			"internet_access": "wlan",
			"internet_access:fee": "customers",
			"name": "Monsieur Vuong",
			"opening_hours": "Mo-Th 12:00-23:00; Fr-Su 12:00-24:00",
			"outdoor_seating": "yes",
			"payment:credit_cards": "yes",
			"payment:debit_cards": "yes",
			"wheelchair": "no"
		},
		"geometry": {
			"type": "Point",
			"coordinates": [13.4078977, 52.5266247]
		},
		"id": "node/567837367"
	},
	{
		"type": "Feature",
		"properties": {
			"@id": "node/595682004",
			"addr:city": "Berlin",
			"addr:country": "DE",
			"addr:housenumber": 143,
			"addr:postcode": 10178,
			"addr:street": "Dircksenstraße",
			"addr:suburb": "Mitte",
			"amenity": "restaurant",
			"cuisine": "german;burger",
			"microbrewery": "yes",
			"name": "Brauhaus Lemke",
			"opening_hours": "Mo-Su 12:00-00:00",
			"phone": "+49-30-24728727",
			"toilets:wheelchair": "no",
			"website": "https://hm.lemke.berlin/",
			"wheelchair": "no"
		},
		"geometry": {
			"type": "Point",
			"coordinates": [13.4045873, 52.5232658]
		},
		"id": "node/595682004"
	},
	{
		"type": "Feature",
		"properties": {
			"@id": "node/610981723",
			"amenity": "restaurant",
			"cuisine": "italian",
			"name": "Sisal",
			"wheelchair": "no"
		},
		"geometry": {
			"type": "Point",
			"coordinates": [13.4034219, 52.527846]
		},
		"id": "node/610981723"
	},
	{
		"type": "Feature",
		"properties": {
			"@id": "node/611030882",
			"addr:city": "Berlin",
			"addr:country": "DE",
			"addr:housenumber": 1,
			"addr:postcode": 10119,
			"addr:street": "Rosenthaler Straße",
			"addr:suburb": "Mitte",
			"amenity": "restaurant",
			"name": "Fabisch",
			"wheelchair": "yes"
		},
		"geometry": {
			"type": "Point",
			"coordinates": [13.4014692, 52.5292746]
		},
		"id": "node/611030882"
	},
	{
		"type": "Feature",
		"properties": {
			"@id": "node/615149024",
			"addr:city": "Berlin",
			"addr:country": "DE",
			"addr:housenumber": "40-41",
			"addr:postcode": 10178,
			"addr:street": "Rosenthaler Straße",
			"addr:suburb": "Mitte",
			"amenity": "restaurant",
			"contact:email": "post@hackescher-hof.de",
			"contact:fax": "+49 30 28 35 294",
			"contact:phone": "+49 30 28 35 293",
			"contact:website": "http://www.hackescher-hof.de",
			"name": "Hackescher Hof",
			"name:zh": "哈客市場",
			"opening_hours": "24/7",
			"operator": "Hackescher Hof Restaurant GmbH",
			"wheelchair": "limited",
			"wheelchair:description": "Stufenloser Eingang seitlich, Rollitoilette mit Aufzug im Keller"
		},
		"geometry": {
			"type": "Point",
			"coordinates": [13.4024078, 52.5239323]
		},
		"id": "node/615149024"
	},
	{
		"type": "Feature",
		"properties": {
			"@id": "node/615149995",
			"addr:city": "Berlin",
			"addr:country": "DE",
			"addr:housename": "Hackesche Höfe, Hof 1 & 2",
			"addr:housenumber": "40-41",
			"addr:postcode": 10178,
			"addr:street": "Rosenthaler Straße",
			"addr:suburb": "Mitte",
			"amenity": "restaurant",
			"email": "info@oxymoron-berlin.de",
			"fax": "+49 30 28391887",
			"name": "Oxymoron",
			"opening_hours": "Tu-Sa 9:00-23:00",
			"operator": "Schliestedt & Partner",
			"outdoor_seating": "yes",
			"phone": "+49 30 28391886",
			"reservation": "yes",
			"toilets:wheelchair": "yes",
			"website": "http://www.oxymoron-berlin.de",
			"wheelchair": "limited",
			"wheelchair:description": "Rolli-WC gehört zu den Hackeschen Höfen und befindet sich im UG, mit de Fahrstuhl erreichbar, dieser ist eher schmal, nichts für größere Elektrorollstühle und größere Wendekreise"
		},
		"geometry": {
			"type": "Point",
			"coordinates": [13.4018084, 52.5241587]
		},
		"id": "node/615149995"
	},
	{
		"type": "Feature",
		"properties": {
			"@id": "node/663346172",
			"addr:city": "Berlin",
			"addr:country": "DE",
			"addr:housenumber": "1A",
			"addr:postcode": 10178,
			"addr:street": "Panoramastraße",
			"addr:suburb": "Mitte",
			"amenity": "restaurant",
			"contact:website": "https://www.dein-alex.de/berlin-alexanderplatz#oeffnungszeiten",
			"indoor_seating": "yes",
			"name": "ALEX",
			"opening_hours": "Mo-Th,Su 08:00-01:00, Fr-Sa 09:00-02:00",
			"opening_hours:signed": "no",
			"outdoor_seating": "yes",
			"toilets:wheelchair": "yes",
			"wheelchair": "yes"
		},
		"geometry": {
			"type": "Point",
			"coordinates": [13.4083713, 52.5211058]
		},
		"id": "node/663346172"
	},
	{
		"type": "Feature",
		"properties": {
			"@id": "node/667366375",
			"addr:housenumber": 3,
			"addr:postcode": 10178,
			"addr:street": "Kleine Präsidentenstraße",
			"amenity": "restaurant",
			"cuisine": "asian",
			"name": "Ni's Restaurant"
		},
		"geometry": {
			"type": "Point",
			"coordinates": [13.4003145, 52.5228088]
		},
		"id": "node/667366375"
	},
	{
		"type": "Feature",
		"properties": {
			"@id": "node/667779176",
			"amenity": "restaurant",
			"cuisine": "sushi",
			"name": "Fuki Sushi",
			"wheelchair": "no"
		},
		"geometry": {
			"type": "Point",
			"coordinates": [13.4034466, 52.5275895]
		},
		"id": "node/667779176"
	},
	{
		"type": "Feature",
		"properties": {
			"@id": "node/667815238",
			"addr:city": "Berlin",
			"addr:country": "DE",
			"addr:housenumber": 47,
			"addr:postcode": 10178,
			"addr:street": "Dircksenstraße",
			"addr:suburb": "Mitte",
			"amenity": "restaurant",
			"cuisine": "thai",
			"name": "Sisaket",
			"opening_hours": "Tu-Fr 12:00-15:00,17:00-22:00; PH,Sa,Su 13:00-22:00",
			"outdoor_seating": "yes",
			"wheelchair": "limited",
			"wheelchair:description": "Restaurant hat auf dem Hof eine barrierefreien Eingang"
		},
		"geometry": {
			"type": "Point",
			"coordinates": [13.404871, 52.5235156]
		},
		"id": "node/667815238"
	},
	{
		"type": "Feature",
		"properties": {
			"@id": "node/667884810",
			"addr:city": "Berlin",
			"addr:country": "DE",
			"addr:housenumber": 11,
			"addr:postcode": 10119,
			"addr:street": "Gipsstraße",
			"addr:suburb": "Mitte",
			"amenity": "restaurant",
			"contact:phone": "+49 30 28093840",
			"name": "Altes Europa",
			"outdoor_seating": "yes",
			"phone": "+49 30 28093840",
			"wheelchair": "no"
		},
		"geometry": {
			"type": "Point",
			"coordinates": [13.401068, 52.526693]
		},
		"id": "node/667884810"
	},
	{
		"type": "Feature",
		"properties": {
			"@id": "node/892565238",
			"addr:city": "Berlin",
			"addr:housenumber": 5,
			"addr:postcode": 10178,
			"addr:street": "Am Zwirngraben",
			"amenity": "restaurant",
			"cuisine": "barbecue",
			"email": "info@bbq-kitchen.de",
			"fax": "+49-30-27909817",
			"name": "BBQ Kitchen",
			"opening_hours": "Mo-Su 11:00-00:00",
			"phone": "+49 30 27909816",
			"website": "http://www.bbq-kitchen.de",
			"wheelchair": "yes"
		},
		"geometry": {
			"type": "Point",
			"coordinates": [13.4032449, 52.5229175]
		},
		"id": "node/892565238"
	},
	{
		"type": "Feature",
		"properties": {
			"@id": "node/975312186",
			"addr:city": "Berlin",
			"addr:country": "DE",
			"addr:housenumber": 7,
			"addr:postcode": 10178,
			"addr:street": "Neue Promenade",
			"addr:suburb": "Mitte",
			"amenity": "restaurant",
			"name": "Beef Bull Club",
			"website": "http://www.beefbullclub.de",
			"wheelchair": "limited"
		},
		"geometry": {
			"type": "Point",
			"coordinates": [13.4012964, 52.5227533]
		},
		"id": "node/975312186"
	},
	{
		"type": "Feature",
		"properties": {
			"@id": "node/975312196",
			"addr:city": "Berlin",
			"addr:country": "DE",
			"addr:housenumber": 5,
			"addr:postcode": 10178,
			"addr:street": "Neue Promenade",
			"addr:suburb": "Mitte",
			"amenity": "restaurant",
			"contact:phone": "+49 30 84 71 07 60",
			"contact:website": "http://www.weihenstephaner-berlin.de/",
			"cuisine": "german",
			"name": "Weihenstephaner",
			"opening_hours": "Mo-Su 11:00-01:00",
			"toilets:wheelchair": "yes",
			"wheelchair": "limited",
			"wheelchair:description": "nur zum draußen sitzen geeignet"
		},
		"geometry": {
			"type": "Point",
			"coordinates": [13.4017099, 52.5229726]
		},
		"id": "node/975312196"
	},
	{
		"type": "Feature",
		"properties": {
			"@id": "node/1073020603",
			"addr:city": "Berlin",
			"addr:country": "DE",
			"addr:postcode": 10178,
			"addr:street": "Am Zwirngraben",
			"amenity": "restaurant",
			"biergarten": "yes",
			"cuisine": "international",
			"email": "info@rocco-berlin.de",
			"fax": "+49-30-24638607",
			"level": 0,
			"name": "Grand Rocka",
			"phone": "+49-30-24638606",
			"website": "https://www.rocco-berlin.de/",
			"wheelchair": "no"
		},
		"geometry": {
			"type": "Point",
			"coordinates": [13.4028901, 52.5228343]
		},
		"id": "node/1073020603"
	},
	{
		"type": "Feature",
		"properties": {
			"@id": "node/1212471829",
			"addr:city": "Berlin",
			"addr:country": "DE",
			"addr:housenumber": 68,
			"addr:postcode": 10119,
			"addr:street": "Rosenthaler Straße",
			"addr:suburb": "Mitte",
			"amenity": "restaurant",
			"contact:phone": "+49 30 24781645",
			"contact:website": "http://www.transit-restaurants.com/",
			"cuisine": "asian",
			"name": "Transit",
			"opening_hours": "Mo-Su 11:00-01:00",
			"wheelchair": "limited"
		},
		"geometry": {
			"type": "Point",
			"coordinates": [13.4022809, 52.5286295]
		},
		"id": "node/1212471829"
	},
	{
		"type": "Feature",
		"properties": {
			"@id": "node/1212504449",
			"addr:city": "Berlin",
			"addr:country": "DE",
			"addr:housenumber": 61,
			"addr:postcode": 10119,
			"addr:street": "Rosenthaler Straße",
			"addr:suburb": "Mitte",
			"amenity": "restaurant",
			"capacity": 45,
			"contact:phone": "+49 30 28097212",
			"contact:website": "http://www.muretlabarba.de/",
			"cuisine": "italian",
			"name": "Muret La Barba",
			"opening_hours": "Mo-Fr 10:00-00:00; Sa-Su 12:00-00:00",
			"takeaway": "yes",
			"wheelchair": "no"
		},
		"geometry": {
			"type": "Point",
			"coordinates": [13.4034676, 52.5274951]
		},
		"id": "node/1212504449"
	},
	{
		"type": "Feature",
		"properties": {
			"@id": "node/1212504461",
			"addr:city": "Berlin",
			"addr:country": "DE",
			"addr:housenumber": 6,
			"addr:postcode": 10119,
			"addr:street": "Alte Schönhauser Straße",
			"addr:suburb": "Mitte",
			"amenity": "restaurant",
			"check_date": "2022-11-03",
			"contact:phone": "+49 30 24632485",
			"contact:website": "http://www.yamyam-berlin.de",
			"cuisine": "korean",
			"diet:vegan": "yes",
			"diet:vegetarian": "yes",
			"internet_access": "no",
			"name": "YamYam",
			"opening_hours": "Tu-Sa 12:00-23:00",
			"payment:cash": "no",
			"payment:credit_cards": "yes",
			"payment:debit_cards": "yes",
			"wheelchair": "limited"
		},
		"geometry": {
			"type": "Point",
			"coordinates": [13.408267, 52.527551]
		},
		"id": "node/1212504461"
	},
	{
		"type": "Feature",
		"properties": {
			"@id": "node/1278254651",
			"addr:city": "Berlin",
			"addr:country": "DE",
			"addr:housenumber": 13,
			"addr:postcode": 10119,
			"addr:street": "Rosenthaler Straße",
			"addr:suburb": "Mitte",
			"amenity": "restaurant",
			"contact:phone": "+49 30 28884282",
			"contact:website": "http://www.chenche-berlin.de",
			"cuisine": "vietnamese",
			"delivery": "no",
			"diet:vegan": "yes",
			"diet:vegetarian": "yes",
			"internet_access": "no",
			"name": "Chén Ché",
			"opening_hours": "12:00-24:00",
			"outdoor_seating": "yes",
			"shop": "tea",
			"smoking": "outside",
			"takeaway": "yes",
			"toilets:wheelchair": "no",
			"wheelchair": "limited",
			"wheelchair:description": "Keine barrierefreie Toilette"
		},
		"geometry": {
			"type": "Point",
			"coordinates": [13.4024727, 52.5273922]
		},
		"id": "node/1278254651"
	},
	{
		"type": "Feature",
		"properties": {
			"@id": "node/1295218940",
			"amenity": "restaurant",
			"level": 0,
			"name": "Vivolo Ole",
			"toilets:wheelchair": "yes",
			"wheelchair": "yes"
		},
		"geometry": {
			"type": "Point",
			"coordinates": [13.4021224, 52.5226782]
		},
		"id": "node/1295218940"
	},
	{
		"type": "Feature",
		"properties": {
			"@id": "node/1389419207",
			"addr:city": "Berlin",
			"addr:country": "DE",
			"addr:housenumber": 69,
			"addr:postcode": 10119,
			"addr:street": "Torstraße",
			"addr:suburb": "Prenzlauer Berg",
			"amenity": "restaurant",
			"cuisine": "georgian",
			"name": "Golden Fleece",
			"wheelchair": "no"
		},
		"geometry": {
			"type": "Point",
			"coordinates": [13.4076581, 52.5293275]
		},
		"id": "node/1389419207"
	},
	{
		"type": "Feature",
		"properties": {
			"@id": "node/1602162087",
			"amenity": "restaurant",
			"check_date": "2022-09-28",
			"cuisine": "italian;pizza",
			"indoor_seating": "yes",
			"name": "Pizza-Scheune",
			"name:de": "Pizza-Scheune",
			"opening_hours": "Mo-Fr 12:00-22:00",
			"outdoor_seating": "yes",
			"payment:mastercard": "yes",
			"payment:visa": "yes",
			"wheelchair": "no"
		},
		"geometry": {
			"type": "Point",
			"coordinates": [13.4100471, 52.5280126]
		},
		"id": "node/1602162087"
	},
	{
		"type": "Feature",
		"properties": {
			"@id": "node/1602162090",
			"addr:city": "Berlin",
			"addr:country": "DE",
			"addr:housenumber": 49,
			"addr:postcode": 10178,
			"addr:street": "Rosa-Luxemburg-Straße",
			"addr:suburb": "Mitte",
			"amenity": "restaurant",
			"check_date": "2022-09-28",
			"description": "Falafel",
			"indoor_seating": "yes",
			"name": "Kiez Falafel",
			"opening_hours": "Mo-Su 10:00-22:00",
			"outdoor_seating": "yes",
			"payment:cards": "no",
			"payment:credit_cards": "no",
			"payment:debit_cards": "no",
			"wheelchair": "no"
		},
		"geometry": {
			"type": "Point",
			"coordinates": [13.4100954, 52.5279408]
		},
		"id": "node/1602162090"
	},
	{
		"type": "Feature",
		"properties": {
			"@id": "node/1608905780",
			"addr:city": "Berlin",
			"addr:country": "DE",
			"addr:housenumber": 29,
			"addr:postcode": 10119,
			"addr:street": "Max-Beer-Straße",
			"addr:suburb": "Mitte",
			"amenity": "restaurant",
			"cuisine": "french",
			"diet:vegetarian": "yes",
			"name": "L' Ami Fritz",
			"opening_hours": "Mo-Fr 11:30-16:00",
			"toilets:wheelchair": "no",
			"wheelchair": "no",
			"wheelchair:description": "Im Sommer gibt es eine ebenerdige Terrasse (Bürgersteig)."
		},
		"geometry": {
			"type": "Point",
			"coordinates": [13.4085057, 52.5263723]
		},
		"id": "node/1608905780"
	},
	{
		"type": "Feature",
		"properties": {
			"@id": "node/1659285200",
			"amenity": "restaurant",
			"cuisine": "indian",
			"name": "Yogi",
			"source": "survey",
			"wheelchair": "no"
		},
		"geometry": {
			"type": "Point",
			"coordinates": [13.4071576, 52.5236847]
		},
		"id": "node/1659285200"
	},
	{
		"type": "Feature",
		"properties": {
			"@id": "node/1741956125",
			"amenity": "restaurant",
			"cuisine": "vietnamese",
			"name": "Mivadu",
			"wheelchair": "limited"
		},
		"geometry": {
			"type": "Point",
			"coordinates": [13.4020773, 52.5288957]
		},
		"id": "node/1741956125"
	},
	{
		"type": "Feature",
		"properties": {
			"@id": "node/1812151279",
			"addr:city": "Berlin",
			"addr:country": "DE",
			"addr:housename": "S-Bahnhof Hackescher Markt",
			"addr:housenumber": 13,
			"addr:postcode": 10178,
			"addr:street": "Am Zwirngraben",
			"addr:suburb": "Mitte",
			"amenity": "restaurant",
			"indoor_seating": "yes",
			"name": "Barist",
			"opening_hours": "Fr-Sa 09:00-23:00; Su-Th 09:00-23:00",
			"outdoor_seating": "yes",
			"source": "memory",
			"toilets:wheelchair": "no",
			"website": "https://www.barist.de/",
			"website:menu": "https://www.barist.de/Barist_SK_2020.pdf",
			"wheelchair": "yes"
		},
		"geometry": {
			"type": "Point",
			"coordinates": [13.401906, 52.5226353]
		},
		"id": "node/1812151279"
	},
	{
		"type": "Feature",
		"properties": {
			"@id": "node/1812151909",
			"amenity": "restaurant",
			"cuisine": "regional",
			"email": "post@berlin-1840.de",
			"indoor_seating": "yes",
			"name": "Restauration 1840",
			"opening_hours": "Mo-Su 12:00+",
			"operator": "Neue Bögen am Hackeschen Markt Gaststätten - und Betriebs GmbH",
			"outdoor_seating": "yes",
			"phone": "+49 30 24727401",
			"toilets:wheelchair": "no",
			"website": "https://www.berlin-1840.de/",
			"wheelchair": "limited"
		},
		"geometry": {
			"type": "Point",
			"coordinates": [13.4026273, 52.522783]
		},
		"id": "node/1812151909"
	},
	{
		"type": "Feature",
		"properties": {
			"@id": "node/1816817781",
			"addr:city": "Berlin",
			"addr:city:fa": "برلین",
			"addr:housenumber": 9,
			"addr:place": "Alexanderplatz",
			"addr:postcode": 10178,
			"amenity": "restaurant",
			"delivery": "no",
			"diet:vegetarian": "yes",
			"indoor": "yes",
			"indoor_seating": "yes",
			"level": 5,
			"name": "Dinea",
			"opening_hours": "Mo-We 09:30-20:00; Th-Sa 09:30-22:00",
			"outdoor_seating": "no",
			"phone": "+49 30 24743748",
			"smoking": "no",
			"takeaway": "yes",
			"website": "https://www.dinea.de/berlin-alex/",
			"wheelchair": "yes"
		},
		"geometry": {
			"type": "Point",
			"coordinates": [13.4118276, 52.5222549]
		},
		"id": "node/1816817781"
	},
	{
		"type": "Feature",
		"properties": {
			"@id": "node/1860427541",
			"addr:city": "Berlin",
			"addr:country": "DE",
			"addr:housenumber": 7,
			"addr:postcode": 10178,
			"addr:street": "Oranienburger Straße",
			"addr:suburb": "Mitte",
			"amenity": "restaurant",
			"contact:facebook": "https://www.facebook.com/qn.veganliving",
			"cuisine": "vietnamese",
			"diet:vegan": "only",
			"diet:vegetarian": "yes",
			"food": "yes",
			"name": "Quy Nguyen Vegan Living",
			"opening_hours": "Mo-Su 12:00-22:30",
			"outdoor_seating": "yes",
			"phone": "+49 30 2828995",
			"wheelchair": "no"
		},
		"geometry": {
			"type": "Point",
			"coordinates": [13.4004769, 52.5237141]
		},
		"id": "node/1860427541"
	},
	{
		"type": "Feature",
		"properties": {
			"@id": "node/1945792005",
			"addr:city": "Berlin",
			"addr:country": "DE",
			"addr:housenumber": "186a",
			"addr:postcode": 10119,
			"addr:street": "Schönhauser Allee",
			"addr:suburb": "Prenzlauer Berg",
			"amenity": "restaurant",
			"contact:phone": "+49 30 44323830",
			"contact:website": "https://www.giannis-pastabar.de/",
			"cuisine": "italian",
			"name": "Giannis Pasta-Bar",
			"opening_hours": "Tu-Fr 08:00-15:00, 17:00-22:00; Sa 08:00-22:00",
			"operator": "Gianni Gillone",
			"outdoor_seating": "yes",
			"shop": "deli",
			"smoking": "no",
			"toilets:wheelchair": "no",
			"wheelchair": "limited"
		},
		"geometry": {
			"type": "Point",
			"coordinates": [13.4097836, 52.5294717]
		},
		"id": "node/1945792005"
	},
	{
		"type": "Feature",
		"properties": {
			"@id": "node/2157483614",
			"addr:city": "Berlin",
			"addr:housenumber": 125,
			"addr:postcode": 10119,
			"addr:street": "Torstraße",
			"amenity": "restaurant",
			"cuisine": "asian",
			"name": "Fam. Dang",
			"opening_hours": "Mo-Su 11:30-24:00",
			"outdoor_seating": "yes",
			"surveillance": "indoor",
			"takeaway": "yes",
			"wheelchair": "no"
		},
		"geometry": {
			"type": "Point",
			"coordinates": [13.4005012, 52.5297359]
		},
		"id": "node/2157483614"
	},
	{
		"type": "Feature",
		"properties": {
			"@id": "node/2188514626",
			"amenity": "restaurant",
			"cuisine": "italian"
		},
		"geometry": {
			"type": "Point",
			"coordinates": [13.4008352, 52.5276643]
		},
		"id": "node/2188514626"
	},
	{
		"type": "Feature",
		"properties": {
			"@id": "node/2188514632",
			"amenity": "restaurant",
			"cuisine": "japanese",
			"name": "Tsukushiya",
			"opening_hours": "Mo-Th 18:00-23:00; Fr,Sa 18:00-23:30"
		},
		"geometry": {
			"type": "Point",
			"coordinates": [13.401361, 52.5277352]
		},
		"id": "node/2188514632"
	},
	{
		"type": "Feature",
		"properties": {
			"@id": "node/2204566485",
			"addr:city": "Berlin",
			"addr:country": "DE",
			"addr:housenumber": 19,
			"addr:postcode": 10178,
			"addr:street": "Sophienstraße",
			"addr:suburb": "Mitte",
			"amenity": "restaurant",
			"name": "mittendrin",
			"wheelchair": "no"
		},
		"geometry": {
			"type": "Point",
			"coordinates": [13.4009335, 52.5256767]
		},
		"id": "node/2204566485"
	},
	{
		"type": "Feature",
		"properties": {
			"@id": "node/2485468842",
			"addr:city": "Berlin",
			"addr:country": "DE",
			"addr:housenumber": 96,
			"addr:postcode": 10119,
			"addr:street": "Torstraße",
			"addr:suburb": "Mitte",
			"amenity": "restaurant",
			"name": "To the Bone",
			"wheelchair": "no"
		},
		"geometry": {
			"type": "Point",
			"coordinates": [13.4045708, 52.5294063]
		},
		"id": "node/2485468842"
	},
	{
		"type": "Feature",
		"properties": {
			"@id": "node/2485478390",
			"addr:city": "Berlin",
			"addr:country": "DE",
			"addr:housenumber": 125,
			"addr:postcode": 10119,
			"addr:street": "Torstraße",
			"addr:suburb": "Mitte",
			"amenity": "restaurant",
			"capacity": 50,
			"contact:website": "http://www.lapausa.de",
			"cuisine": "pizza",
			"delivery": "no",
			"name": "La Pausa",
			"opening_hours": "Mo-Su 11:00-02:30",
			"outdoor_seating": "yes",
			"phone": "+4930 24 08 31 08",
			"smoking": "outside",
			"surveillance": "indoor",
			"takeaway": "yes",
			"toilets:wheelchair": "no",
			"wheelchair": "limited"
		},
		"geometry": {
			"type": "Point",
			"coordinates": [13.4006323, 52.5297345]
		},
		"id": "node/2485478390"
	},
	{
		"type": "Feature",
		"properties": {
			"@id": "node/2549735529",
			"addr:city": "Berlin",
			"addr:country": "DE",
			"addr:housenumber": 11,
			"addr:postcode": 10178,
			"addr:street": "Sophienstraße",
			"addr:suburb": "Mitte",
			"amenity": "restaurant",
			"contact:website": "http://www.restauration-sophien11.de/",
			"cuisine": "german",
			"name": "Restauration Sophien 11",
			"opening_hours": "Mo-Sa 12:00-22:00; PH,Su off",
			"operator": "Gambrinus trifft Bacchus GbR",
			"outdoor_seating": "backyard",
			"phone": "+49 30 28 32 136",
			"wheelchair": "no"
		},
		"geometry": {
			"type": "Point",
			"coordinates": [13.4027669, 52.52503]
		},
		"id": "node/2549735529"
	},
	{
		"type": "Feature",
		"properties": {
			"@id": "node/2558589471",
			"addr:city": "Berlin",
			"addr:country": "DE",
			"addr:housenumber": 6,
			"addr:postcode": 10178,
			"addr:street": "Bernhard-Weiß-Straße",
			"addr:suburb": "Mitte",
			"amenity": "restaurant",
			"diet:vegetarian": "yes",
			"name": "Wandel",
			"opening_hours": "Mo-Fr 07:00-18:00",
			"operator": "Widynski & Roick GmbH",
			"toilets:wheelchair": "yes",
			"website": "http://www.wandel-berlin.de",
			"wheelchair": "yes"
		},
		"geometry": {
			"type": "Point",
			"coordinates": [13.4166846, 52.5239834]
		},
		"id": "node/2558589471"
	},
	{
		"type": "Feature",
		"properties": {
			"@id": "node/2663357561",
			"addr:city": "Berlin",
			"addr:country": "DE",
			"addr:housenumber": 17,
			"addr:postcode": 10178,
			"addr:street": "Rosa-Luxemburg-Straße",
			"addr:suburb": "Mitte",
			"amenity": "restaurant",
			"cuisine": "asian;sushi",
			"description": "Asia Cuisine, Sushi Bar",
			"diet:vegan": "yes",
			"diet:vegetarian": "yes",
			"name": "King King",
			"opening_hours": "Mo-Sa 11:30-23:00; Su,PH 12:00-23:00",
			"outdoor_seating": "yes",
			"website": "https://www.kingkingberlin.de/",
			"wheelchair": "no"
		},
		"geometry": {
			"type": "Point",
			"coordinates": [13.4103076, 52.5251696]
		},
		"id": "node/2663357561"
	},
	{
		"type": "Feature",
		"properties": {
			"@id": "node/2667343940",
			"addr:city": "Berlin",
			"amenity": "restaurant",
			"contact:website": "http://momotaro-tavern.com/",
			"cuisine": "burger;asian",
			"diet:vegetarian": "yes",
			"name": "Momotaro Tavern",
			"opening_hours": "Mo-Th,Su 12:00-23:00; Fr,Sa 12:00-24:00",
			"opening_hours:signed": "no",
			"wheelchair": "yes"
		},
		"geometry": {
			"type": "Point",
			"coordinates": [13.409629, 52.5212442]
		},
		"id": "node/2667343940"
	},
	{
		"type": "Feature",
		"properties": {
			"@id": "node/2675156665",
			"addr:city": "Berlin",
			"addr:country": "DE",
			"addr:housenumber": 31,
			"addr:postcode": 10178,
			"addr:street": "Rosa-Luxemburg-Straße",
			"addr:suburb": "Mitte",
			"amenity": "restaurant",
			"cuisine": "italian",
			"entrance": "yes",
			"indoor_seating": "yes",
			"name": "Bar Internazionale",
			"opening_hours": "Mo-Su 12:00-24:00",
			"outdoor_seating": "yes"
		},
		"geometry": {
			"type": "Point",
			"coordinates": [13.4109593, 52.5261337]
		},
		"id": "node/2675156665"
	},
	{
		"type": "Feature",
		"properties": {
			"@id": "node/2796729140",
			"addr:city": "Berlin",
			"addr:country": "DE",
			"addr:housenumber": 37,
			"addr:postcode": 10178,
			"addr:street": "Rosenthaler Straße",
			"addr:suburb": "Mitte",
			"amenity": "restaurant",
			"cuisine": "spanish",
			"name": "Yosoy",
			"opening_hours": "11:00+",
			"operator": "Yosoy GmbH",
			"phone": "+493028391213",
			"smoking": "no",
			"toilets:wheelchair": "no",
			"website": "https://www.yosoy.de/",
			"wheelchair": "no"
		},
		"geometry": {
			"type": "Point",
			"coordinates": [13.402778, 52.5243521]
		},
		"id": "node/2796729140"
	},
	{
		"type": "Feature",
		"properties": {
			"@id": "node/2796753234",
			"addr:city": "Berlin",
			"addr:country": "DE",
			"addr:housenumber": 4,
			"addr:postcode": 10178,
			"addr:street": "Oranienburger Straße",
			"addr:suburb": "Mitte",
			"amenity": "restaurant",
			"contact:website": "http://www.hasir.de",
			"cuisine": "turkish",
			"name": "Hasir",
			"toilets:wheelchair": "no",
			"wheelchair": "yes"
		},
		"geometry": {
			"type": "Point",
			"coordinates": [13.4011026, 52.5238191]
		},
		"id": "node/2796753234"
	},
	{
		"type": "Feature",
		"properties": {
			"@id": "node/2831137575",
			"addr:city": "Berlin",
			"addr:country": "DE",
			"addr:housenumber": 12,
			"addr:postcode": 10119,
			"addr:street": "Alte Schönhauser Straße",
			"addr:suburb": "Mitte",
			"amenity": "restaurant",
			"contact:phone": "+49 30 40041787",
			"cuisine": "italian",
			"name": "Mädchenitaliener",
			"opening_hours": "Mo-Sa 12:00-19:00",
			"ref:vatin": "DE3445952177",
			"wheelchair": "limited",
			"wheelchair:description": "Schmaler Eingang mit Stufe"
		},
		"geometry": {
			"type": "Point",
			"coordinates": [13.4077863, 52.5269301]
		},
		"id": "node/2831137575"
	},
	{
		"type": "Feature",
		"properties": {
			"@id": "node/3045334454",
			"addr:city": "Berlin",
			"addr:country": "DE",
			"addr:housenumber": 2,
			"addr:postcode": 10178,
			"addr:street": "Spandauer Straße",
			"addr:suburb": "Mitte",
			"amenity": "restaurant",
			"contact:phone": "+49 30 3439 2626",
			"contact:website": "http://www.kantine-deluxe.de/",
			"name": "Kantine Deluxe",
			"toilets:wheelchair": "yes",
			"wheelchair": "yes",
			"wheelchair:description": "Keine Stufen, behindertengerechtes WC ebenerdig, ein Behindertenparkplatz im Hof, weitere in der Garage des Sealife Center gegenüber"
		},
		"geometry": {
			"type": "Point",
			"coordinates": [13.404239, 52.5207854]
		},
		"id": "node/3045334454"
	},
	{
		"type": "Feature",
		"properties": {
			"@id": "node/3176672776",
			"addr:city": "Berlin",
			"addr:country": "DE",
			"addr:housenumber": 37,
			"addr:postcode": 10119,
			"addr:street": "Max-Beer-Straße",
			"addr:suburb": "Mitte",
			"amenity": "restaurant",
			"cuisine": "vietnamese",
			"diet:vegan": "yes",
			"diet:vegetarian": "yes",
			"indoor_seating": "yes",
			"name": "Quà Phê",
			"opening_hours": "Mo-Sa 12:00-20:30",
			"opening_hours:covid19": "Mo-Su 12:00-19:00",
			"outdoor_seating": "yes",
			"smoking": "no",
			"wheelchair": "limited"
		},
		"geometry": {
			"type": "Point",
			"coordinates": [13.4086767, 52.526847]
		},
		"id": "node/3176672776"
	},
	{
		"type": "Feature",
		"properties": {
			"@id": "node/3239758866",
			"addr:city": "Berlin",
			"addr:country": "DE",
			"addr:housenumber": 62,
			"addr:postcode": 10119,
			"addr:street": "Rosenthaler Straße",
			"addr:suburb": "Mitte",
			"amenity": "restaurant",
			"contact:phone": "+49 30 20089284",
			"contact:website": "http://www.districtmot.com",
			"cuisine": "vietnamese",
			"diet:vegan": "yes",
			"diet:vegetarian": "yes",
			"drive_in": "no",
			"email": "info@districtmot.com",
			"internet_access": "wlan",
			"microbrewery": "no",
			"name": "District Một",
			"opening_hours": "Mo-Su 12:00-00:00",
			"outdoor_seating": "yes",
			"wheelchair": "no"
		},
		"geometry": {
			"type": "Point",
			"coordinates": [13.4034228, 52.5277092]
		},
		"id": "node/3239758866"
	},
	{
		"type": "Feature",
		"properties": {
			"@id": "node/3239758883",
			"addr:city": "Berlin",
			"addr:country": "DE",
			"addr:housenumber": 29,
			"addr:postcode": 10119,
			"addr:street": "Mulackstraße",
			"addr:suburb": "Mitte",
			"amenity": "restaurant",
			"contact:website": "http://www.manngo.de",
			"cuisine": "vietnamese",
			"name": "Manngo",
			"opening_hours": "Mo-Fr 12:00-24:00; Sa 16:00-24:00",
			"outdoor_seating": "yes",
			"wheelchair": "no"
		},
		"geometry": {
			"type": "Point",
			"coordinates": [13.405597, 52.5273466]
		},
		"id": "node/3239758883"
	},
	{
		"type": "Feature",
		"properties": {
			"@id": "node/3309951961",
			"amenity": "restaurant",
			"name": "Alto",
			"wheelchair": "yes"
		},
		"geometry": {
			"type": "Point",
			"coordinates": [13.404253, 52.522075]
		},
		"id": "node/3309951961"
	},
	{
		"type": "Feature",
		"properties": {
			"@id": "node/3394472090",
			"addr:city": "Berlin",
			"addr:country": "DE",
			"addr:housenumber": 17,
			"addr:postcode": 10178,
			"addr:street": "Rosa-Luxemburg-Straße",
			"addr:suburb": "Mitte",
			"amenity": "restaurant",
			"contact:website": "http://hovang.de/",
			"cuisine": "asian",
			"diet:vegetarian": "yes",
			"indoor_seating": "yes",
			"name": "Ho Vang",
			"opening_hours": "Mo-Fr 11:00-23:00; PH,Sa 12:00-23:00",
			"outdoor_seating": "yes",
			"smoking": "no",
			"toilets:wheelchair": "no",
			"wheelchair": "no",
			"wheelchair:description": "Steiltreppe zu den WCs"
		},
		"geometry": {
			"type": "Point",
			"coordinates": [13.4102171, 52.5250423]
		},
		"id": "node/3394472090"
	},
	{
		"type": "Feature",
		"properties": {
			"@id": "node/3542621851",
			"addr:city": "Berlin",
			"addr:country": "DE",
			"addr:housenumber": 1,
			"addr:postcode": 10178,
			"addr:street": "Litfaß-Platz",
			"addr:suburb": "Mitte",
			"amenity": "restaurant",
			"cuisine": "sushi",
			"name": "Kiraku",
			"opening_hours": "Mo-Sa 12:00-21:30",
			"wheelchair": "yes"
		},
		"geometry": {
			"type": "Point",
			"coordinates": [13.4035735, 52.5218041]
		},
		"id": "node/3542621851"
	},
	{
		"type": "Feature",
		"properties": {
			"@id": "node/3559488393",
			"addr:city": "Berlin",
			"addr:country": "DE",
			"addr:housenumber": 7,
			"addr:postcode": 10119,
			"addr:street": "Alte Schönhauser Straße",
			"addr:suburb": "Mitte",
			"amenity": "restaurant",
			"check_date": "2022-11-03",
			"cuisine": "japanese",
			"diet:vegetarian": "yes",
			"indoor_seating": "yes",
			"name": "Jabe",
			"opening_hours": "Mo-Sa 12:00-15:00,17:30-22:00; Su 17:30-22:00",
			"outdoor_seating": "yes",
			"payment:credit_cards": "yes",
			"payment:debit_cards": "yes",
			"smoking": "no",
			"wheelchair": "limited"
		},
		"geometry": {
			"type": "Point",
			"coordinates": [13.408165, 52.527414]
		},
		"id": "node/3559488393"
	},
	{
		"type": "Feature",
		"properties": {
			"@id": "node/3676215901",
			"addr:city": "Berlin",
			"addr:city:fa": "برلین",
			"addr:country": "DE",
			"addr:housenumber": "1a",
			"addr:postcode": 10178,
			"addr:street": "Panoramastraße",
			"addr:suburb": "Mitte",
			"amenity": "restaurant",
			"cuisine": "italian",
			"name": "MIO Restaurant unterm Fernsehturm",
			"opening_hours": "Mo-Fr 12:00-24:00; Sa-Su 10:00-24:00",
			"phone": "+49 30 84712758",
			"website": "https://www.mioberlin.de/",
			"wheelchair": "no"
		},
		"geometry": {
			"type": "Point",
			"coordinates": [13.4096443, 52.5202088]
		},
		"id": "node/3676215901"
	},
	{
		"type": "Feature",
		"properties": {
			"@id": "node/3694033425",
			"addr:city": "Berlin",
			"addr:country": "DE",
			"addr:housenumber": 124,
			"addr:postcode": 10119,
			"addr:street": "Torstraße",
			"addr:suburb": "Mitte",
			"amenity": "restaurant",
			"cuisine": "italian",
			"delivery": "no",
			"name": "La Cantina",
			"outdoor_seating": "yes",
			"smoking": "separated",
			"surveillance": "indoor",
			"takeaway": "yes",
			"toilets:wheelchair": "yes",
			"wheelchair": "yes"
		},
		"geometry": {
			"type": "Point",
			"coordinates": [13.400719, 52.529452]
		},
		"id": "node/3694033425"
	},
	{
		"type": "Feature",
		"properties": {
			"@id": "node/3810291760",
			"addr:city": "Berlin",
			"addr:country": "DE",
			"addr:housenumber": 60,
			"addr:postcode": 10119,
			"addr:street": "Alte Schönhauser Straße",
			"addr:suburb": "Mitte",
			"amenity": "restaurant",
			"contact:website": "http://www.good-morning-vietnam.de/",
			"cuisine": "vietnamese",
			"diet:vegan": "yes",
			"diet:vegetarian": "yes",
			"ele": 0,
			"name": "Good Morning Vietnam",
			"opening_hours": "Mo - Su 12:00-24:00",
			"smoking": "outside",
			"takeaway": "yes",
			"wheelchair": "no"
		},
		"geometry": {
			"type": "Point",
			"coordinates": [13.4093485, 52.5284227]
		},
		"id": "node/3810291760"
	},
	{
		"type": "Feature",
		"properties": {
			"@id": "node/3889701016",
			"addr:city": "Berlin",
			"addr:country": "DE",
			"addr:housenumber": 14,
			"addr:postcode": 10178,
			"addr:street": "Rochstraße",
			"addr:suburb": "Mitte",
			"amenity": "restaurant",
			"contact:website": "http://www.thepubworld.com/de/berlin/",
			"cuisine": "burger",
			"email": "pub@thepubworld.de",
			"name": "The Pub",
			"opening_hours": "Mo-Th 18:00-01:00, Fr-Sa 18:00-04:00, Su 18:00-01:00",
			"phone": "+49 30 25762201",
			"toilets:wheelchair": "yes",
			"wheelchair": "yes"
		},
		"geometry": {
			"type": "Point",
			"coordinates": [13.4072315, 52.5230968]
		},
		"id": "node/3889701016"
	},
	{
		"type": "Feature",
		"properties": {
			"@id": "node/3895249957",
			"addr:city": "Berlin",
			"addr:country": "DE",
			"addr:housenumber": 37,
			"addr:postcode": 10178,
			"addr:street": "Dircksenstraße",
			"addr:suburb": "Mitte",
			"amenity": "restaurant",
			"contact:phone": "+49 30 24339838",
			"contact:website": "http://www.madami-restaurant.de",
			"cuisine": "vietnamese",
			"name": "Madami (papa)",
			"opening_hours": "Mo-Sa 12:00-23:00",
			"wheelchair": "no"
		},
		"geometry": {
			"type": "Point",
			"coordinates": [13.4083586, 52.5232426]
		},
		"id": "node/3895249957"
	},
	{
		"type": "Feature",
		"properties": {
			"@id": "node/3895254315",
			"addr:city": "Berlin",
			"addr:country": "DE",
			"addr:housenumber": 37,
			"addr:postcode": 10178,
			"addr:street": "Dircksenstraße",
			"addr:suburb": "Mitte",
			"amenity": "restaurant",
			"contact:phone": "+49 30 247 243 71",
			"contact:website": "http://www.thai-inside.de",
			"cuisine": "thai",
			"name": "Thai Inside",
			"opening_hours": "Mo-Su 12:00-24:00",
			"wheelchair": "limited"
		},
		"geometry": {
			"type": "Point",
			"coordinates": [13.4081119, 52.5233173]
		},
		"id": "node/3895254315"
	},
	{
		"type": "Feature",
		"properties": {
			"@id": "node/3898773895",
			"amenity": "restaurant",
			"cuisine": "sushi",
			"fixme": "Etage, Position",
			"name": "Kotobuki-Sushi"
		},
		"geometry": {
			"type": "Point",
			"coordinates": [13.4111269, 52.5226494]
		},
		"id": "node/3898773895"
	},
	{
		"type": "Feature",
		"properties": {
			"@id": "node/3898773896",
			"addr:city": "Berlin",
			"amenity": "restaurant",
			"cuisine": "italian",
			"level": 0,
			"name": "Sapori Italiani"
		},
		"geometry": {
			"type": "Point",
			"coordinates": [13.411396, 52.5228253]
		},
		"id": "node/3898773896"
	},
	{
		"type": "Feature",
		"properties": {
			"@id": "node/3902729687",
			"addr:city": "Berlin",
			"addr:country": "DE",
			"addr:housenumber": 132,
			"addr:postcode": 10119,
			"addr:street": "Torstraße",
			"addr:suburb": "Mitte",
			"amenity": "restaurant",
			"contact:phone": "+49 30 70031953",
			"cuisine": "french",
			"internet_access": "no",
			"name": "Sucre et Sel",
			"opening_hours": "Mo-Fr 12:00-24:00; Sa-Su 10:00-24:00",
			"website": "https://www.sucreetsel.de/",
			"wheelchair": "yes"
		},
		"geometry": {
			"type": "Point",
			"coordinates": [13.4001532, 52.5294244]
		},
		"id": "node/3902729687"
	},
	{
		"type": "Feature",
		"properties": {
			"@id": "node/4015423389",
			"addr:city": "Berlin",
			"addr:housenumber": 41,
			"addr:postcode": 10119,
			"addr:street": "Torstraße",
			"amenity": "restaurant",
			"contact:phone": "+49 30 21952904",
			"contact:website": "https://www.yokozuna-sushi-berlin.de/",
			"cuisine": "sushi",
			"delivery": "yes",
			"name": "Yokozuna Sushi",
			"name:ja": "横綱寿司",
			"opening_hours": "Mo-Fr 11:30-14:30,17:30-22:00; Sa 17:30-22:00; Su 15:00-22:00",
			"wheelchair": "limited"
		},
		"geometry": {
			"type": "Point",
			"coordinates": [13.4112251, 52.5286535]
		},
		"id": "node/4015423389"
	},
	{
		"type": "Feature",
		"properties": {
			"@id": "node/4036437296",
			"addr:city": "Berlin",
			"addr:housenumber": 3,
			"addr:postcode": 10178,
			"addr:street": "Rosa-Luxemburg-Straße",
			"amenity": "restaurant",
			"cuisine": "vietnamese",
			"diet:vegetarian": "yes",
			"name": "Madami (mama)",
			"takeaway": "no",
			"wheelchair": "no"
		},
		"geometry": {
			"type": "Point",
			"coordinates": [13.4089464, 52.523391]
		},
		"id": "node/4036437296"
	},
	{
		"type": "Feature",
		"properties": {
			"@id": "node/4114438890",
			"addr:city": "Berlin",
			"addr:housenumber": 6,
			"addr:postcode": 10178,
			"addr:street": "Rathausstraße",
			"amenity": "restaurant",
			"brand": "Vapiano",
			"brand:wikidata": "Q506252",
			"brand:wikipedia": "en:Vapiano",
			"check_date:opening_hours": "2021-04-11",
			"cuisine": "italian",
			"diet:vegan": "yes",
			"diet:vegetarian": "yes",
			"indoor_seating": "yes",
			"internet_access": "wlan",
			"name": "Vapiano",
			"opening_hours": "Mo-Th,Sa 11:00-01:00, Fr,Su 11:00-24:00",
			"outdoor_seating": "yes",
			"toilets:wheelchair": "yes",
			"wheelchair": "yes",
			"wheelchair:description": "Aufzug vorhanden, Toilette sogar mit Wickeltisch"
		},
		"geometry": {
			"type": "Point",
			"coordinates": [13.4104934, 52.5207437]
		},
		"id": "node/4114438890"
	},
	{
		"type": "Feature",
		"properties": {
			"@id": "node/4119290551",
			"amenity": "restaurant",
			"cuisine": "italian",
			"name": "Ossena",
			"outdoor_seating": "yes",
			"smoking": "outside",
			"toilets:wheelchair": "yes",
			"wheelchair": "yes"
		},
		"geometry": {
			"type": "Point",
			"coordinates": [13.4014167, 52.5227979]
		},
		"id": "node/4119290551"
	},
	{
		"type": "Feature",
		"properties": {
			"@id": "node/4159749894",
			"addr:city": "Berlin",
			"addr:country": "DE",
			"addr:housenumber": 1,
			"addr:postcode": 10119,
			"addr:street": "Torstraße",
			"addr:suburb": "Prenzlauer Berg",
			"amenity": "restaurant",
			"name": "The Store Kitchen",
			"name:ja": "ザ・ストアキッチン",
			"wheelchair": "no"
		},
		"geometry": {
			"type": "Point",
			"coordinates": [13.415304, 52.5275223]
		},
		"id": "node/4159749894"
	},
	{
		"type": "Feature",
		"properties": {
			"@id": "node/4244204865",
			"amenity": "restaurant",
			"cuisine": "burger",
			"name": "KreuzBurger",
			"wheelchair": "limited"
		},
		"geometry": {
			"type": "Point",
			"coordinates": [13.4019759, 52.529244]
		},
		"id": "node/4244204865"
	},
	{
		"type": "Feature",
		"properties": {
			"@id": "node/4244204866",
			"amenity": "restaurant",
			"cuisine": "sushi",
			"name": "Sushi Circle",
			"opening_hours": "Tu-Sa 16:00-22:00; Su,Mo off",
			"smoking": "no",
			"wheelchair": "no"
		},
		"geometry": {
			"type": "Point",
			"coordinates": [13.4016052, 52.5290384]
		},
		"id": "node/4244204866"
	},
	{
		"type": "Feature",
		"properties": {
			"@id": "node/4261575775",
			"amenity": "restaurant",
			"cuisine": "chicken",
			"name": "Chicken Buzz",
			"wheelchair": "yes"
		},
		"geometry": {
			"type": "Point",
			"coordinates": [13.402099, 52.529071]
		},
		"id": "node/4261575775"
	},
	{
		"type": "Feature",
		"properties": {
			"@id": "node/4313910789",
			"addr:city": "Berlin",
			"addr:country": "DE",
			"addr:housenumber": "11-13",
			"addr:postcode": 10178,
			"addr:street": "Rosa-Luxemburg-Straße",
			"addr:suburb": "Mitte",
			"amenity": "restaurant",
			"contact:website": "http://prince-restaurant.com/",
			"cuisine": "asian",
			"name": "Prince",
			"wheelchair": "no"
		},
		"geometry": {
			"type": "Point",
			"coordinates": [13.4097372, 52.5244929]
		},
		"id": "node/4313910789"
	},
	{
		"type": "Feature",
		"properties": {
			"@id": "node/4405527123",
			"addr:city": "Berlin",
			"addr:country": "DE",
			"addr:housenumber": 2,
			"addr:postcode": 10178,
			"addr:street": "Rochstraße",
			"addr:suburb": "Mitte",
			"amenity": "restaurant",
			"contact:phone": "+49 30 27596130",
			"cuisine": "german",
			"diet:vegetarian": "yes",
			"name": "Lebensmittel in Mitte",
			"opening_hours": "Mo-Sa 12:00-01:00"
		},
		"geometry": {
			"type": "Point",
			"coordinates": [13.4074731, 52.5241565]
		},
		"id": "node/4405527123"
	},
	{
		"type": "Feature",
		"properties": {
			"@id": "node/4458809891",
			"amenity": "restaurant",
			"cuisine": "sushi",
			"diet:vegetarian": "yes",
			"name": "Tuans Hütte",
			"toilets:wheelchair": "no",
			"wheelchair": "yes"
		},
		"geometry": {
			"type": "Point",
			"coordinates": [13.407066, 52.5235504]
		},
		"id": "node/4458809891"
	},
	{
		"type": "Feature",
		"properties": {
			"@id": "node/4515944289",
			"addr:city": "Berlin",
			"addr:country": "DE",
			"addr:housenumber": 59,
			"addr:postcode": 10119,
			"addr:street": "Torstraße",
			"addr:suburb": "Prenzlauer Berg",
			"amenity": "restaurant",
			"check_date": "2022-07-09",
			"contact:phone": "+49 30 30307047",
			"contact:website": "http://ryong.de",
			"cuisine": "vietnamese;japanese",
			"diet:vegan": "yes",
			"diet:vegetarian": "yes",
			"internet_access": "no",
			"level": 0,
			"name": "Ryong",
			"opening_hours": "Mo-Th 12:00-22:30; Fr,Sa 12:00-23:00; Su 17:00-22:30",
			"outdoor_seating": "yes",
			"reservation": "yes",
			"takeaway": "yes",
			"wheelchair": "no"
		},
		"geometry": {
			"type": "Point",
			"coordinates": [13.4089621, 52.5290695]
		},
		"id": "node/4515944289"
	},
	{
		"type": "Feature",
		"properties": {
			"@id": "node/4515947707",
			"addr:city": "Berlin",
			"addr:country": "DE",
			"addr:housenumber": 30,
			"addr:postcode": 10178,
			"addr:street": "Rosa-Luxemburg-Straße",
			"addr:suburb": "Mitte",
			"amenity": "restaurant",
			"diet:vegan": "yes",
			"diet:vegetarian": "only",
			"name": "Soy",
			"opening_hours": "Mo-Fr 12:00-23:00; Sa-Su 13:00-23:00",
			"phone": "+49 30 23405890",
			"toilets:wheelchair": "no",
			"website": "http://soy-berlin.com",
			"wheelchair": "limited"
		},
		"geometry": {
			"type": "Point",
			"coordinates": [13.411493, 52.5260245]
		},
		"id": "node/4515947707"
	},
	{
		"type": "Feature",
		"properties": {
			"@id": "node/4526394889",
			"addr:city": "Berlin",
			"addr:housenumber": 5,
			"addr:postcode": 10178,
			"addr:street": "Rosa-Luxemburg-Straße",
			"amenity": "restaurant",
			"cuisine": "arab",
			"diet:vegan": "yes",
			"diet:vegetarian": "yes",
			"name": "Esra",
			"opening_hours": "Mo-Su 11:00-21:00",
			"outdoor_seating": "yes",
			"website": "http://esra.restaurant",
			"wheelchair": "limited"
		},
		"geometry": {
			"type": "Point",
			"coordinates": [13.409154, 52.5236434]
		},
		"id": "node/4526394889"
	},
	{
		"type": "Feature",
		"properties": {
			"@id": "node/4648308025",
			"amenity": "restaurant",
			"cuisine": "asian;japanese;sushi;vietnamese",
			"level": 0,
			"name": "Chopstix",
			"opening_hours": "Mo-Fr 11:00-23:00; Sa-Su 12:00-24:00",
			"wheelchair": "yes"
		},
		"geometry": {
			"type": "Point",
			"coordinates": [13.4094331, 52.5228395]
		},
		"id": "node/4648308025"
	},
	{
		"type": "Feature",
		"properties": {
			"@id": "node/4713534381",
			"addr:city": "Berlin",
			"addr:country": "DE",
			"addr:housenumber": "1a",
			"addr:postcode": 10178,
			"addr:street": "Panoramastraße",
			"addr:suburb": "Mitte",
			"amenity": "restaurant",
			"capacity": 200,
			"cuisine": "regional",
			"delivery": "no",
			"description": "Drehrestaurant auf 207 m Höhe",
			"ele": 207,
			"email": "reservierung@tv-turm.de",
			"name": "Sphere Restaurant im Berliner Fernsehturm",
			"opening_hours": "09:00-24:00",
			"outdoor_seating": "no",
			"smoking": "no",
			"takeaway": "no",
			"website": "https://tv-turm.de",
			"wheelchair": "no"
		},
		"geometry": {
			"type": "Point",
			"coordinates": [13.4094282, 52.5208928]
		},
		"id": "node/4713534381"
	},
	{
		"type": "Feature",
		"properties": {
			"@id": "node/4731259592",
			"alt_name": "BurgerVision",
			"amenity": "restaurant",
			"cuisine": "burger",
			"name": "Burger Vision",
			"outdoor_seating": "yes",
			"smoking": "outside",
			"takeaway": "yes",
			"toilets": "yes",
			"wheelchair": "no"
		},
		"geometry": {
			"type": "Point",
			"coordinates": [13.409696, 52.529386]
		},
		"id": "node/4731259592"
	},
	{
		"type": "Feature",
		"properties": {
			"@id": "node/4759529685",
			"addr:housenumber": "14-16",
			"addr:street": "Weydingerstraße",
			"amenity": "restaurant",
			"description": "Kantine im Hinterhaus",
			"name": "Kantine",
			"opening_hours": "Mo-Fr 08:00-15:00",
			"wheelchair": "limited"
		},
		"geometry": {
			"type": "Point",
			"coordinates": [13.4134042, 52.5264395]
		},
		"id": "node/4759529685"
	},
	{
		"type": "Feature",
		"properties": {
			"@id": "node/4761628572",
			"addr:city": "Berlin",
			"addr:housenumber": 227,
			"addr:street": "Linienstraße",
			"amenity": "restaurant",
			"name": "Kantine Volksbühne"
		},
		"geometry": {
			"type": "Point",
			"coordinates": [13.4122038, 52.527423]
		},
		"id": "node/4761628572"
	},
	{
		"type": "Feature",
		"properties": {
			"@id": "node/4763606721",
			"addr:city": "Berlin",
			"addr:country": "DE",
			"addr:housenumber": 4,
			"addr:postcode": 10178,
			"addr:street": "Hirtenstraße",
			"addr:suburb": "Mitte",
			"amenity": "restaurant",
			"contact:phone": "+49 30 2789099555",
			"contact:website": "https://the-grand-berlin.com/",
			"indoor_seating": "yes",
			"name": "The Grand",
			"opening_hours": "We-Sa 18:00+",
			"outdoor_seating": "no",
			"toilets:wheelchair": "no",
			"wheelchair": "no",
			"wheelchair:description": "Gehobenes deutsch-französisches Restaurant in edlem Dekor mit Hofterrasse, Bar und Club auf drei Etagen. Telefon: 030 2789099555"
		},
		"geometry": {
			"type": "Point",
			"coordinates": [13.4124862, 52.5255332]
		},
		"id": "node/4763606721"
	},
	{
		"type": "Feature",
		"properties": {
			"@id": "node/4922325150",
			"addr:city": "Berlin",
			"addr:country": "DE",
			"addr:housenumber": "36-38",
			"addr:postcode": 10405,
			"addr:street": "Saarbrücker Straße",
			"addr:suburb": "Prenzlauer Berg",
			"amenity": "restaurant",
			"contact:website": "https://www.unsicht-bar.de",
			"name": "unsicht-Bar",
			"opening_hours": "18:00+",
			"reservation": "required"
		},
		"geometry": {
			"type": "Point",
			"coordinates": [13.4155539, 52.5286454]
		},
		"id": "node/4922325150"
	},
	{
		"type": "Feature",
		"properties": {
			"@id": "node/5037466421",
			"addr:city": "Berlin",
			"addr:country": "DE",
			"addr:housenumber": 38,
			"addr:postcode": 10178,
			"addr:street": "Rosenthaler Straße",
			"addr:suburb": "Mitte",
			"amenity": "restaurant",
			"name": "Data Kitchen",
			"opening_hours": "Mo-Su 09:00-17:00",
			"website": "https://www.datakitchen.berlin"
		},
		"geometry": {
			"type": "Point",
			"coordinates": [13.4026993, 52.5242736]
		},
		"id": "node/5037466421"
	},
	{
		"type": "Feature",
		"properties": {
			"@id": "node/5140813622",
			"addr:city": "Berlin",
			"addr:country": "DE",
			"addr:housenumber": 50,
			"addr:postcode": 10119,
			"addr:street": "Alte Schönhauser Straße",
			"addr:suburb": "Mitte",
			"amenity": "restaurant",
			"contact:website": "http://banhmistable.com/",
			"cuisine": "vietnamese",
			"diet:vegetarian": "yes",
			"name": "Banh Mi Stable",
			"opening_hours": "Mo-Fr 12:00-18:00; Sa 12:00-17:00",
			"wheelchair": "no"
		},
		"geometry": {
			"type": "Point",
			"coordinates": [13.4084105, 52.5269359]
		},
		"id": "node/5140813622"
	},
	{
		"type": "Feature",
		"properties": {
			"@id": "node/5155170818",
			"addr:city": "Berlin",
			"addr:housenumber": 99,
			"addr:postcode": 10119,
			"addr:street": "Torstraße",
			"amenity": "restaurant",
			"cuisine": "german",
			"name": "PeterPaul",
			"opening_hours": "Tu-Sa 17:00-01:00",
			"toilets:wheelchair": "yes",
			"website": "http://peterpaul.berlin/",
			"wheelchair": "yes"
		},
		"geometry": {
			"type": "Point",
			"coordinates": [13.4042527, 52.5299217]
		},
		"id": "node/5155170818"
	},
	{
		"type": "Feature",
		"properties": {
			"@id": "node/5185413424",
			"amenity": "restaurant",
			"cuisine": "italian",
			"name": "Da Piadina",
			"opening_hours": "Mo-Sa 12:00-24:00",
			"wheelchair": "no"
		},
		"geometry": {
			"type": "Point",
			"coordinates": [13.400984, 52.5278637]
		},
		"id": "node/5185413424"
	},
	{
		"type": "Feature",
		"properties": {
			"@id": "node/5257822624",
			"addr:city": "Berlin",
			"addr:housenumber": 8,
			"addr:street": "Schönhauser Allee",
			"amenity": "restaurant",
			"drink:coffee": "yes",
			"name": "Fleischerei",
			"wheelchair": "yes"
		},
		"geometry": {
			"type": "Point",
			"coordinates": [13.4105183, 52.5297835]
		},
		"id": "node/5257822624"
	},
	{
		"type": "Feature",
		"properties": {
			"@id": "node/5333432121",
			"addr:city": "Berlin",
			"addr:country": "DE",
			"addr:housenumber": 11,
			"addr:postcode": 10119,
			"addr:street": "Joachimstraße",
			"addr:suburb": "Mitte",
			"amenity": "restaurant",
			"contact:facebook": "https://www.facebook.com/Chipperfield-Kantine-1421133724770555/",
			"contact:website": "https://kantine-berlinmitte.de",
			"indoor_seating": "yes",
			"name": "Chipperfield Kantine",
			"opening_hours": "Mo-Th 08:30-17:00; Fr 08:30-19:00",
			"outdoor_seating": "yes",
			"wheelchair": "yes"
		},
		"geometry": {
			"type": "Point",
			"coordinates": [13.4005219, 52.528181]
		},
		"id": "node/5333432121"
	},
	{
		"type": "Feature",
		"properties": {
			"@id": "node/5393663164",
			"addr:city": "Berlin",
			"addr:country": "DE",
			"addr:housenumber": 5,
			"addr:postcode": 10178,
			"addr:street": "Rosa-Luxemburg-Straße",
			"addr:suburb": "Mitte",
			"amenity": "restaurant",
			"cuisine": "japanese",
			"name": "Beyond Ramen",
			"opening_hours": "Su-Th 12:00-22:30; Fr,Sa 12:00-23:30"
		},
		"geometry": {
			"type": "Point",
			"coordinates": [13.4091132, 52.5235734]
		},
		"id": "node/5393663164"
	},
	{
		"type": "Feature",
		"properties": {
			"@id": "node/5393663166",
			"amenity": "restaurant",
			"contact:website": "https://www.thereed.de/foodanddrinks",
			"level": 1,
			"name": "The Reed",
			"note": "maybe it's more than a restaurant, not quite clear",
			"opening_hours": "Mo-Su 07:00+",
			"wheelchair": "yes"
		},
		"geometry": {
			"type": "Point",
			"coordinates": [13.4083924, 52.5222001]
		},
		"id": "node/5393663166"
	},
	{
		"type": "Feature",
		"properties": {
			"@id": "node/5512010608",
			"addr:city": "Berlin",
			"addr:country": "DE",
			"addr:housenumber": 7,
			"addr:postcode": 10178,
			"addr:street": "Oranienburger Straße",
			"addr:suburb": "Mitte",
			"amenity": "restaurant",
			"cuisine": "hawaiian",
			"diet:vegan": "yes",
			"diet:vegetarian": "yes",
			"name": "Ma'loa",
			"opening_hours": "Mo-Fr 11:00-21:45; Sa 12:00-21:45; Su 13:00-21:00",
			"wheelchair": "no"
		},
		"geometry": {
			"type": "Point",
			"coordinates": [13.4003558, 52.5237128]
		},
		"id": "node/5512010608"
	},
	{
		"type": "Feature",
		"properties": {
			"@id": "node/5534476038",
			"addr:city": "Berlin",
			"addr:country": "DE",
			"addr:housenumber": 3,
			"addr:postcode": 10178,
			"addr:street": "Memhardstraße",
			"addr:suburb": "Mitte",
			"amenity": "restaurant",
			"brand": "L'Osteria",
			"brand:wikidata": "Q17323478",
			"brand:wikipedia": "de:L’Osteria",
			"cuisine": "italian",
			"diet:vegetarian": "yes",
			"email": "memhardstrasse@losteria.de",
			"name": "L'Osteria",
			"opening_hours": "Mo-Su,PH 12:00-22:00",
			"outdoor_seating": "yes",
			"phone": "+49 30 28043240",
			"website": "https://losteria.net/de/restaurants/restaurant/berlin-memhardstrasse/",
			"wheelchair": "yes"
		},
		"geometry": {
			"type": "Point",
			"coordinates": [13.4102103, 52.5237679]
		},
		"id": "node/5534476038"
	},
	{
		"type": "Feature",
		"properties": {
			"@id": "node/5597962251",
			"addr:city": "Berlin",
			"addr:country": "DE",
			"addr:housenumber": 15,
			"addr:postcode": 10178,
			"addr:street": "Karl-Liebknecht-Straße",
			"addr:suburb": "Mitte",
			"amenity": "restaurant",
			"contact:website": "http://www.mamavan.de/",
			"cuisine": "vietnamese;sandwich",
			"name": "Mama Vân",
			"opening_hours": "Mo-Su 11:00-22:00",
			"outdoor_seating": "yes",
			"wheelchair": "no"
		},
		"geometry": {
			"type": "Point",
			"coordinates": [13.4100471, 52.5229753]
		},
		"id": "node/5597962251"
	},
	{
		"type": "Feature",
		"properties": {
			"@id": "node/5724470446",
			"addr:city": "Berlin",
			"addr:country": "DE",
			"addr:housenumber": 5,
			"addr:postcode": 10178,
			"addr:street": "Karl-Liebknecht-Straße",
			"addr:suburb": "Mitte",
			"amenity": "restaurant",
			"contact:website": "http://www.peretti-berlin.com/",
			"cuisine": "italian",
			"name": "Trattoria Peretti",
			"opening_hours": "11:00-00:00",
			"outdoor_seating": "yes",
			"wheelchair": "yes"
		},
		"geometry": {
			"type": "Point",
			"coordinates": [13.4031215, 52.5201674]
		},
		"id": "node/5724470446"
	},
	{
		"type": "Feature",
		"properties": {
			"@id": "node/5743959921",
			"addr:city": "Berlin",
			"addr:country": "DE",
			"addr:housenumber": 36,
			"addr:postcode": 10178,
			"addr:street": "Rosenthaler Straße",
			"addr:suburb": "Mitte",
			"amenity": "restaurant",
			"contact:website": "https://www.littleitaly.berlin/",
			"cuisine": "italian",
			"name": "Piccolo Giardino",
			"toilets:wheelchair": "yes",
			"wheelchair": "limited"
		},
		"geometry": {
			"type": "Point",
			"coordinates": [13.4020731, 52.524694]
		},
		"id": "node/5743959921"
	},
	{
		"type": "Feature",
		"properties": {
			"@id": "node/6026591785",
			"addr:housenumber": 13,
			"addr:postcode": 10119,
			"addr:street": "Max-Beer-Straße",
			"amenity": "restaurant",
			"cuisine": "japanese",
			"name": "Shiori",
			"opening_hours": "Mo-Sa 19:30-22:30",
			"website": "http://shioriberlin.com/"
		},
		"geometry": {
			"type": "Point",
			"coordinates": [13.4081148, 52.5255024]
		},
		"id": "node/6026591785"
	},
	{
		"type": "Feature",
		"properties": {
			"@id": "node/6058583255",
			"addr:city": "Berlin",
			"addr:country": "DE",
			"addr:housenumber": 29,
			"addr:postcode": 10119,
			"addr:street": "Mulackstraße",
			"addr:suburb": "Mitte",
			"amenity": "restaurant",
			"contact:instagram": "https://instagram.com/iimoriramen",
			"cuisine": "ramen",
			"diet:vegan": "yes",
			"name": "Iimori Ramen",
			"opening_hours": "Mo-Sa 12:00-22:00",
			"outdoor_seating": "yes",
			"phone": "+49 30 33905188",
			"wheelchair": "no"
		},
		"geometry": {
			"type": "Point",
			"coordinates": [13.4057043, 52.5273307]
		},
		"id": "node/6058583255"
	},
	{
		"type": "Feature",
		"properties": {
			"@id": "node/6165775287",
			"addr:postcode": 10178,
			"amenity": "restaurant",
			"cuisine": "vietnamese",
			"name": "Bonjour Saigon",
			"phone": "+4915253118771"
		},
		"geometry": {
			"type": "Point",
			"coordinates": [13.4024547, 52.5250981]
		},
		"id": "node/6165775287"
	},
	{
		"type": "Feature",
		"properties": {
			"@id": "node/6728666233",
			"addr:city": "Berlin",
			"addr:country": "DE",
			"addr:housenumber": 48,
			"addr:postcode": 10119,
			"addr:street": "Torstraße",
			"addr:suburb": "Mitte",
			"amenity": "restaurant",
			"indoor_seating": "yes",
			"name": "Remi",
			"opening_hours": "Tu-Sa 12:00-22:00",
			"outdoor_seating": "yes"
		},
		"geometry": {
			"type": "Point",
			"coordinates": [13.4104587, 52.5283411]
		},
		"id": "node/6728666233"
	},
	{
		"type": "Feature",
		"properties": {
			"@id": "node/6795457143",
			"addr:city": "Berlin",
			"addr:country": "DE",
			"addr:housenumber": 3,
			"addr:postcode": 10178,
			"addr:street": "Münzstraße",
			"addr:suburb": "Mitte",
			"amenity": "restaurant",
			"cuisine": "vietnamese",
			"diet:vegetarian": "yes",
			"indoor_seating": "yes",
			"name": "Com Viet",
			"opening_hours": "Mo-Sa 12:00-23:00; Su 15:00-23:00",
			"outdoor_seating": "yes"
		},
		"geometry": {
			"type": "Point",
			"coordinates": [13.4089195, 52.5240741]
		},
		"id": "node/6795457143"
	},
	{
		"type": "Feature",
		"properties": {
			"@id": "node/7917398840",
			"addr:city": "Berlin",
			"addr:country": "DE",
			"addr:housenumber": 4,
			"addr:postcode": 10178,
			"addr:street": "Neue Promenade",
			"amenity": "restaurant",
			"brand": "Peter Pane",
			"brand:wikidata": "Q66084419",
			"brand:wikipedia": "nl:Peter Pane",
			"contact:phone": "+49 30 28097663",
			"contact:website": "https://www.peterpane.de/gemuetliche-restaurants/hackescher-markt",
			"cuisine": "burger",
			"diet:vegan": "yes",
			"diet:vegetarian": "yes",
			"indoor_seating": "yes",
			"name": "Peter Pane",
			"opening_hours": "11:00+",
			"outdoor_seating": "yes"
		},
		"geometry": {
			"type": "Point",
			"coordinates": [13.401975, 52.5231303]
		},
		"id": "node/7917398840"
	},
	{
		"type": "Feature",
		"properties": {
			"@id": "node/9907785210",
			"addr:city": "Berlin",
			"addr:housenumber": 102,
			"addr:postcode": 10119,
			"addr:street": "Torstraße",
			"amenity": "restaurant",
			"cuisine": "pizza",
			"name": "Standard Pizza Mitte",
			"opening_hours": "Tu-Su 18:00-00:00",
			"website": "http://standard-berlin.de/"
		},
		"geometry": {
			"type": "Point",
			"coordinates": [13.403964, 52.5295269]
		},
		"id": "node/9907785210"
	},
	{
		"type": "Feature",
		"properties": {
			"@id": "node/9974739217",
			"addr:city": "Berlin",
			"addr:country": "DE",
			"addr:housenumber": 22,
			"addr:postcode": 10119,
			"addr:street": "Torstraße",
			"addr:suburb": "Mitte",
			"amenity": "restaurant",
			"contact:website": "https://mibap.berlin/",
			"cuisine": "taiwanese",
			"name": "Mibap"
		},
		"geometry": {
			"type": "Point",
			"coordinates": [13.413011, 52.5277637]
		},
		"id": "node/9974739217"
	},
	{
		"type": "Feature",
		"properties": {
			"@id": "node/10042513984",
			"addr:city": "Berlin",
			"addr:country": "DE",
			"addr:housenumber": 60,
			"addr:postcode": 10405,
			"addr:street": "Straßburger Straße",
			"addr:suburb": "Prenzlauer Berg",
			"amenity": "restaurant",
			"check_date": "2022-09-28",
			"contact:website": "https://ichi-berlin.de/",
			"cuisine": "japanese",
			"name": "Ichi",
			"name:ja": "いち",
			"opening_hours": "Mo,Th-Su 18:00-22:00; Sa-Su 12:00-15:00",
			"payment:mastercard": "yes",
			"payment:visa": "yes",
			"wheelchair": "no"
		},
		"geometry": {
			"type": "Point",
			"coordinates": [13.4119861, 52.5284996]
		},
		"id": "node/10042513984"
	},
	{
		"type": "Feature",
		"properties": {
			"@id": "node/10111376694",
			"amenity": "restaurant",
			"cuisine": "vietnamese",
			"email": "phoco2018@gmail.com",
			"name": "Pho Co Restaurant",
			"opening_hours": "Mo-Su, PH 12:00-22:00",
			"outdoor_seating": "yes",
			"phone": "+49 30 39710948",
			"website": "https://phoco-berlin.de/"
		},
		"geometry": {
			"type": "Point",
			"coordinates": [13.4107648, 52.5252358]
		},
		"id": "node/10111376694"
	}
]
